[{"OBJECT_NAME":"STARLINK-1477","OBJECT_ID":"2020-038AA","EPOCH":"2026-03-09T15:11:57.486336","MEAN_MOTION":15.14348726,"ECCENTRICITY":5.98e-5,"INCLINATION":53.0515,"RA_OF_ASC_NODE":213.2201,"ARG_OF_PERICENTER":95.7123,"MEAN_ANOMALY":264.3937,"EPHEMERIS_TYPE":0,"CLASSIFICATION_TYPE":"U","NORAD_CAT_ID":45754,"ELEMENT_SET_NO":999,"REV_AT_EPOCH":31652,"BSTAR":0.0019315,"MEAN_MOTION_DOT":0.00035702,"MEAN_MOTION_DDOT":0},{"OBJECT_NAME":"HAWK-12C","OBJECT_ID":"2025-138A","EPOCH":"2026-03-09T22:54:55.356768","MEAN_MOTION":15.17353041,"ECCENTRICITY":0.00157924,"INCLINATION":97.4363,"RA_OF_ASC_NODE":73.1446,"ARG_OF_PERICENTER":124.4693,"MEAN_ANOMALY":235.8035,"EPHEMERIS_TYPE":0,"CLASSIFICATION_TYPE":"U","NORAD_CAT_ID":64621,"ELEMENT_SET_NO":999,"REV_AT_EPOCH":3881,"BSTAR":0.00031482945,"MEAN_MOTION_DOT":6.237e-5,"MEAN_MOTION_DDOT":0}]
