STARLINK-1477           
1 45754U 20038AA  26068.63330424  .00035702  00000+0  19315-2 0  9992
2 45754  53.0515 213.2201 0000598  95.7123 264.3937 15.14348726316528
HAWK-12C                
1 64621U 25138A   26068.95480737  .00006237  00000+0  31483-3 0  9992
2 64621  97.4363  73.1446 0015792 124.4693 235.8035 15.17353041 38817
